[{"OBJECT_NAME":"STARLINK-3058","OBJECT_ID":"2021-082J","EPOCH":"2026-03-09T21:56:31.840224","MEAN_MOTION":14.98327791,"ECCENTRICITY":0.00020205,"INCLINATION":69.9986,"RA_OF_ASC_NODE":293.8975,"ARG_OF_PERICENTER":250.3449,"MEAN_ANOMALY":109.7493,"EPHEMERIS_TYPE":0,"CLASSIFICATION_TYPE":"U","NORAD_CAT_ID":49138,"ELEMENT_SET_NO":999,"REV_AT_EPOCH":24601,"BSTAR":5.8290098e-5,"MEAN_MOTION_DOT":6.03e-6,"MEAN_MOTION_DDOT":0},{"OBJECT_NAME":"FENGYUN 1C DEB","OBJECT_ID":"1999-025BGH","EPOCH":"2026-03-07T00:32:23.805600","MEAN_MOTION":14.61103727,"ECCENTRICITY":0.01714734,"INCLINATION":98.0965,"RA_OF_ASC_NODE":89.6303,"ARG_OF_PERICENTER":27.2612,"MEAN_ANOMALY":2.829,"EPHEMERIS_TYPE":0,"CLASSIFICATION_TYPE":"U","NORAD_CAT_ID":31087,"ELEMENT_SET_NO":999,"REV_AT_EPOCH":1,"BSTAR":0.00094332925,"MEAN_MOTION_DOT":5.664e-5,"MEAN_MOTION_DDOT":0}]
